[{"OBJECT_NAME":"ONEWEB-0273","OBJECT_ID":"2021-060AA","EPOCH":"2025-11-29T19:10:47.665920","MEAN_MOTION":13.16594619,"ECCENTRICITY":0.0001957,"INCLINATION":87.9035,"RA_OF_ASC_NODE":268.4861,"ARG_OF_PERICENTER":73.6021,"MEAN_ANOMALY":286.5325,"EPHEMERIS_TYPE":0,"CLASSIFICATION_TYPE":"U","NORAD_CAT_ID":48991,"ELEMENT_SET_NO":999,"REV_AT_EPOCH":21335,"BSTAR":1.3837e-5,"MEAN_MOTION_DOT":1.8e-7,"MEAN_MOTION_DDOT":0},{"OBJECT_NAME":"ONEWEB-0274","OBJECT_ID":"2021-060AB","EPOCH":"2025-11-29T19:47:15.855648","MEAN_MOTION":13.16594376,"ECCENTRICITY":0.000196,"INCLINATION":87.9027,"RA_OF_ASC_NODE":268.5049,"ARG_OF_PERICENTER":85.6033,"MEAN_ANOMALY":274.5322,"EPHEMERIS_TYPE":0,"CLASSIFICATION_TYPE":"U","NORAD_CAT_ID":48992,"ELEMENT_SET_NO":999,"REV_AT_EPOCH":21339,"BSTAR":0.00025869,"MEAN_MOTION_DOT":1.12e-6,"MEAN_MOTION_DDOT":0},{"OBJECT_NAME":"ONEWEB-0275","OBJECT_ID":"2021-060AC","EPOCH":"2025-11-29T19:31:18.268896","MEAN_MOTION":13.16593573,"ECCENTRICITY":0.0001936,"INCLINATION":87.9037,"RA_OF_ASC_NODE":268.4768,"ARG_OF_PERICENTER":77.8178,"MEAN_ANOMALY":282.3169,"EPHEMERIS_TYPE":0,"CLASSIFICATION_TYPE":"U","NORAD_CAT_ID":48993,"ELEMENT_SET_NO":999,"REV_AT_EPOCH":21332,"BSTAR":0.00017524,"MEAN_MOTION_DOT":8.0e-7,"MEAN_MOTION_DDOT":0},{"OBJECT_NAME":"ONEWEB-0276","OBJECT_ID":"2021-060AD","EPOCH":"2025-11-29T13:01:26.357088","MEAN_MOTION":13.16593706,"ECCENTRICITY":0.0001907,"INCLINATION":87.9034,"RA_OF_ASC_NODE":268.5302,"ARG_OF_PERICENTER":70.6244,"MEAN_ANOMALY":289.5093,"EPHEMERIS_TYPE":0,"CLASSIFICATION_TYPE":"U","NORAD_CAT_ID":48994,"ELEMENT_SET_NO":999,"REV_AT_EPOCH":21330,"BSTAR":5.9627e-5,"MEAN_MOTION_DOT":3.6e-7,"MEAN_MOTION_DDOT":0},{"OBJECT_NAME":"ONEWEB-0277","OBJECT_ID":"2021-060AE","EPOCH":"2025-11-29T13:19:38.791776","MEAN_MOTION":13.16598174,"ECCENTRICITY":0.0002032,"INCLINATION":87.9025,"RA_OF_ASC_NODE":268.5529,"ARG_OF_PERICENTER":80.7616,"MEAN_ANOMALY":279.3744,"EPHEMERIS_TYPE":0,"CLASSIFICATION_TYPE":"U","NORAD_CAT_ID":48995,"ELEMENT_SET_NO":999,"REV_AT_EPOCH":21329,"BSTAR":-0.00011021,"MEAN_MOTION_DOT":-2.9e-7,"MEAN_MOTION_DDOT":0},{"OBJECT_NAME":"ONEWEB-0278","OBJECT_ID":"2021-060AF","EPOCH":"2025-11-29T13:05:59.836416","MEAN_MOTION":13.16596306,"ECCENTRICITY":0.0001679,"INCLINATION":87.9037,"RA_OF_ASC_NODE":268.5256,"ARG_OF_PERICENTER":71.8844,"MEAN_ANOMALY":288.2469,"EPHEMERIS_TYPE":0,"CLASSIFICATION_TYPE":"U","NORAD_CAT_ID":48996,"ELEMENT_SET_NO":999,"REV_AT_EPOCH":21342,"BSTAR":-4.6274e-5,"MEAN_MOTION_DOT":-5.0e-8,"MEAN_MOTION_DDOT":0},{"OBJECT_NAME":"ONEWEB-0279","OBJECT_ID":"2021-060AG","EPOCH":"2025-11-29T13:17:25.149120","MEAN_MOTION":13.16593144,"ECCENTRICITY":0.0002131,"INCLINATION":87.9037,"RA_OF_ASC_NODE":268.5218,"ARG_OF_PERICENTER":80.2874,"MEAN_ANOMALY":279.8498,"EPHEMERIS_TYPE":0,"CLASSIFICATION_TYPE":"U","NORAD_CAT_ID":48997,"ELEMENT_SET_NO":999,"REV_AT_EPOCH":21335,"BSTAR":-0.00010005,"MEAN_MOTION_DOT":-2.5e-7,"MEAN_MOTION_DDOT":0},{"OBJECT_NAME":"ONEWEB-0280","OBJECT_ID":"2021-060AH","EPOCH":"2025-11-29T19:07:20.463168","MEAN_MOTION":13.16593184,"ECCENTRICITY":0.0001956,"INCLINATION":87.9035,"RA_OF_ASC_NODE":268.4794,"ARG_OF_PERICENTER":65.5127,"MEAN_ANOMALY":294.6208,"EPHEMERIS_TYPE":0,"CLASSIFICATION_TYPE":"U","NORAD_CAT_ID":48998,"ELEMENT_SET_NO":999,"REV_AT_EPOCH":21332,"BSTAR":-0.00069779,"MEAN_MOTION_DOT":-2.54e-6,"MEAN_MOTION_DDOT":0},{"OBJECT_NAME":"ONEWEB-0281","OBJECT_ID":"2021-060AJ","EPOCH":"2025-11-29T13:47:02.646816","MEAN_MOTION":13.16595463,"ECCENTRICITY":0.000179,"INCLINATION":87.9031,"RA_OF_ASC_NODE":268.5194,"ARG_OF_PERICENTER":80.8847,"MEAN_ANOMALY":279.2486,"EPHEMERIS_TYPE":0,"CLASSIFICATION_TYPE":"U","NORAD_CAT_ID":48999,"ELEMENT_SET_NO":999,"REV_AT_EPOCH":21336,"BSTAR":0.00027027,"MEAN_MOTION_DOT":1.16e-6,"MEAN_MOTION_DDOT":0},{"OBJECT_NAME":"ONEWEB-0282","OBJECT_ID":"2021-060AK","EPOCH":"2025-11-29T19:58:40.292256","MEAN_MOTION":13.1659525,"ECCENTRICITY":0.0002009,"INCLINATION":87.9036,"RA_OF_ASC_NODE":268.479,"ARG_OF_PERICENTER":74.6565,"MEAN_ANOMALY":285.4788,"EPHEMERIS_TYPE":0,"CLASSIFICATION_TYPE":"U","NORAD_CAT_ID":49000,"ELEMENT_SET_NO":999,"REV_AT_EPOCH":21337,"BSTAR":0.0001839,"MEAN_MOTION_DOT":8.3e-7,"MEAN_MOTION_DDOT":0},{"OBJECT_NAME":"ONEWEB-0283","OBJECT_ID":"2021-060AL","EPOCH":"2025-11-29T19:42:42.503328","MEAN_MOTION":13.16595751,"ECCENTRICITY":0.0002003,"INCLINATION":87.9035,"RA_OF_ASC_NODE":268.4817,"ARG_OF_PERICENTER":78.0196,"MEAN_ANOMALY":282.1159,"EPHEMERIS_TYPE":0,"CLASSIFICATION_TYPE":"U","NORAD_CAT_ID":49001,"ELEMENT_SET_NO":999,"REV_AT_EPOCH":21338,"BSTAR":0.00031558,"MEAN_MOTION_DOT":1.34e-6,"MEAN_MOTION_DDOT":0},{"OBJECT_NAME":"ONEWEB-0284","OBJECT_ID":"2021-060AM","EPOCH":"2025-11-29T19:33:35.733024","MEAN_MOTION":13.16594564,"ECCENTRICITY":0.0001798,"INCLINATION":87.9038,"RA_OF_ASC_NODE":268.4715,"ARG_OF_PERICENTER":64.909,"MEAN_ANOMALY":295.2227,"EPHEMERIS_TYPE":0,"CLASSIFICATION_TYPE":"U","NORAD_CAT_ID":49002,"ELEMENT_SET_NO":999,"REV_AT_EPOCH":21336,"BSTAR":0.00040082,"MEAN_MOTION_DOT":1.66e-6,"MEAN_MOTION_DDOT":0},{"OBJECT_NAME":"ONEWEB-0285","OBJECT_ID":"2021-075A","EPOCH":"2025-11-29T13:08:36.833856","MEAN_MOTION":13.12441738,"ECCENTRICITY":0.0001787,"INCLINATION":87.8955,"RA_OF_ASC_NODE":30.3192,"ARG_OF_PERICENTER":97.8131,"MEAN_ANOMALY":262.3201,"EPHEMERIS_TYPE":0,"CLASSIFICATION_TYPE":"U","NORAD_CAT_ID":49075,"ELEMENT_SET_NO":999,"REV_AT_EPOCH":20902,"BSTAR":0.00064912,"MEAN_MOTION_DOT":2.46e-6,"MEAN_MOTION_DDOT":0},{"OBJECT_NAME":"ONEWEB-0286","OBJECT_ID":"2021-075B","EPOCH":"2025-11-29T16:22:05.170656","MEAN_MOTION":13.12443559,"ECCENTRICITY":0.0001657,"INCLINATION":87.8948,"RA_OF_ASC_NODE":30.3257,"ARG_OF_PERICENTER":105.5601,"MEAN_ANOMALY":254.571,"EPHEMERIS_TYPE":0,"CLASSIFICATION_TYPE":"U","NORAD_CAT_ID":49076,"ELEMENT_SET_NO":999,"REV_AT_EPOCH":20839,"BSTAR":0.00088748,"MEAN_MOTION_DOT":3.32e-6,"MEAN_MOTION_DDOT":0},{"OBJECT_NAME":"ONEWEB-0287","OBJECT_ID":"2021-075C","EPOCH":"2025-11-29T16:22:35.423616","MEAN_MOTION":13.1764533,"ECCENTRICITY":0.0001386,"INCLINATION":87.914,"RA_OF_ASC_NODE":45.5372,"ARG_OF_PERICENTER":112.8539,"MEAN_ANOMALY":247.2739,"EPHEMERIS_TYPE":0,"CLASSIFICATION_TYPE":"U","NORAD_CAT_ID":49077,"ELEMENT_SET_NO":999,"REV_AT_EPOCH":20735,"BSTAR":-0.00014147,"MEAN_MOTION_DOT":-4.2e-7,"MEAN_MOTION_DDOT":0},{"OBJECT_NAME":"ONEWEB-0288","OBJECT_ID":"2021-075D","EPOCH":"2025-11-29T15:47:14.612928","MEAN_MOTION":13.12443444,"ECCENTRICITY":0.000164,"INCLINATION":87.8956,"RA_OF_ASC_NODE":30.2922,"ARG_OF_PERICENTER":96.3038,"MEAN_ANOMALY":263.8277,"EPHEMERIS_TYPE":0,"CLASSIFICATION_TYPE":"U","NORAD_CAT_ID":49078,"ELEMENT_SET_NO":999,"REV_AT_EPOCH":20901,"BSTAR":-0.0011638,"MEAN_MOTION_DOT":-4.06e-6,"MEAN_MOTION_DDOT":0},{"OBJECT_NAME":"ONEWEB-0289","OBJECT_ID":"2021-075E","EPOCH":"2025-11-29T17:18:14.900256","MEAN_MOTION":13.17647352,"ECCENTRICITY":0.0001697,"INCLINATION":87.9121,"RA_OF_ASC_NODE":45.546,"ARG_OF_PERICENTER":87.4541,"MEAN_ANOMALY":272.6785,"EPHEMERIS_TYPE":0,"CLASSIFICATION_TYPE":"U","NORAD_CAT_ID":49079,"ELEMENT_SET_NO":999,"REV_AT_EPOCH":20793,"BSTAR":-8.7751e-5,"MEAN_MOTION_DOT":-2.1e-7,"MEAN_MOTION_DDOT":0}]
