ONEWEB-0273             
1 48991U 21060AA  25333.79916280  .00000018  00000+0  13837-4 0  9992
2 48991  87.9035 268.4861 0001957  73.6021 286.5325 13.16594619213351
ONEWEB-0274             
1 48992U 21060AB  25333.82448907  .00000112  00000+0  25869-3 0  9995
2 48992  87.9027 268.5049 0001960  85.6033 274.5322 13.16594376213390
ONEWEB-0275             
1 48993U 21060AC  25333.81340589  .00000080  00000+0  17524-3 0  9995
2 48993  87.9037 268.4768 0001936  77.8178 282.3169 13.16593573213322
ONEWEB-0276             
1 48994U 21060AD  25333.54266617  .00000036  00000+0  59627-4 0  9997
2 48994  87.9034 268.5302 0001907  70.6244 289.5093 13.16593706213309
ONEWEB-0277             
1 48995U 21060AE  25333.55531009 -.00000029  00000+0 -11021-3 0  9998
2 48995  87.9025 268.5529 0002032  80.7616 279.3744 13.16598174213298
ONEWEB-0278             
1 48996U 21060AF  25333.54583144 -.00000005  00000+0 -46274-4 0  9998
2 48996  87.9037 268.5256 0001679  71.8844 288.2469 13.16596306213422
ONEWEB-0279             
1 48997U 21060AG  25333.55376330 -.00000025  00000+0 -10005-3 0  9991
2 48997  87.9037 268.5218 0002131  80.2874 279.8498 13.16593144213359
ONEWEB-0280             
1 48998U 21060AH  25333.79676462 -.00000254  00000+0 -69779-3 0  9993
2 48998  87.9035 268.4794 0001956  65.5127 294.6208 13.16593184213322
ONEWEB-0281             
1 48999U 21060AJ  25333.57433619  .00000116  00000+0  27027-3 0  9990
2 48999  87.9031 268.5194 0001790  80.8847 279.2486 13.16595463213362
ONEWEB-0282             
1 49000U 21060AK  25333.83241079  .00000083  00000+0  18390-3 0  9996
2 49000  87.9036 268.4790 0002009  74.6565 285.4788 13.16595250213373
ONEWEB-0283             
1 49001U 21060AL  25333.82132527  .00000134  00000+0  31558-3 0  9991
2 49001  87.9035 268.4817 0002003  78.0196 282.1159 13.16595751213388
ONEWEB-0284             
1 49002U 21060AM  25333.81499691  .00000166  00000+0  40082-3 0  9996
2 49002  87.9038 268.4715 0001798  64.9090 295.2227 13.16594564213366
ONEWEB-0285             
1 49075U 21075A   25333.54764854  .00000246  00000+0  64912-3 0  9995
2 49075  87.8955  30.3192 0001787  97.8131 262.3201 13.12441738209022
ONEWEB-0286             
1 49076U 21075B   25333.68200429  .00000332  00000+0  88748-3 0  9993
2 49076  87.8948  30.3257 0001657 105.5601 254.5710 13.12443559208392
ONEWEB-0287             
1 49077U 21075C   25333.68235444 -.00000042  00000+0 -14147-3 0  9991
2 49077  87.9140  45.5372 0001386 112.8539 247.2739 13.17645330207355
ONEWEB-0288             
1 49078U 21075D   25333.65780802 -.00000406  00000+0 -11638-2 0  9997
2 49078  87.8956  30.2922 0001640  96.3038 263.8277 13.12443444209018
ONEWEB-0289             
1 49079U 21075E   25333.72100579 -.00000021  00000+0 -87751-4 0  9997
2 49079  87.9121  45.5460 0001697  87.4541 272.6785 13.17647352207932
